{
  "62783": {
    "noradId": "62783",
    "tle": [
      "1 62783C 25015AB  25293.08868056 -.00004969  00000+0 -16745-3 0  2933",
      "2 62783  53.1577 255.4204 0001283  93.2225 353.3950 15.30201566    13"
    ]
  },
  "62784": {
    "noradId": "62784",
    "tle": [
      "1 62784C 25015AC  25293.08243056  .00031389  00000+0  10577-2 0  2931",
      "2 62784  53.1590 255.7796 0001226  91.2673 152.2485 15.30167744    18"
    ]
  },
  "62806": {
    "noradId": "62806",
    "tle": [
      "1 62806C 25018A   25293.07826389  .00030172  00000+0  10169-2 0  2930",
      "2 62806  53.1574 242.6456 0001125  98.8367 177.3306 15.30162529    10"
    ]
  },
  "62807": {
    "noradId": "62807",
    "tle": [
      "1 62807C 25018B   25293.07895833  .00039856  00000+0  13435-2 0  2938",
      "2 62807  53.1576 242.6277 0001024  86.0915 199.7263 15.30147080    15"
    ]
  },
  "62808": {
    "noradId": "62808",
    "tle": [
      "1 62808C 25018C   25293.07965278  .00044690  00000+0  15066-2 0  2934",
      "2 62808  53.1577 242.6808 0001074  98.2293 162.3432 15.30138075    14"
    ]
  },
  "62809": {
    "noradId": "62809",
    "tle": [
      "1 62809C 25018D   25293.08034722  .00042007  00000+0  14161-2 0  2932",
      "2 62809  53.1578 242.5989 0001189  88.3619 216.7446 15.30143166    10"
    ]
  },
  "62810": {
    "noradId": "62810",
    "tle": [
      "1 62810C 25018E   25293.08937500  .00028447  00000+0  95862-3 0  2930",
      "2 62810  53.1576 242.6155 0001006  84.0567 241.7200 15.30169057    12"
    ]
  },
  "62811": {
    "noradId": "62811",
    "tle": [
      "1 62811C 25018F   25293.07756944  .00041667  00000+0  14044-2 0  2932",
      "2 62811  53.1589 242.4701 0001141  89.3262 270.2850 15.30149019    16"
    ]
  },
  "62812": {
    "noradId": "62812",
    "tle": [
      "1 62812C 25018G   25293.08243056  .00041668  00000+0  14047-2 0  2933",
      "2 62812  53.1581 242.5654 0001229  84.0511 249.9780 15.30143468    10"
    ]
  },
  "62813": {
    "noradId": "62813",
    "tle": [
      "1 62813C 25018H   25293.08173611  .00031540  00000+0  10630-2 0  2935",
      "2 62813  53.1591 242.4167 0001154  96.4460 303.5631 15.30161313    18"
    ]
  },
  "62814": {
    "noradId": "62814",
    "tle": [
      "1 62814C 25018J   25293.08034722  .00039943  00000+0  13465-2 0  2939",
      "2 62814  53.1589 242.8261 0001308  67.2468 121.5503 15.30145031    15"
    ]
  },
  "62815": {
    "noradId": "62815",
    "tle": [
      "1 62815C 25018K   25293.08798611  .00042701  00000+0  14389-2 0  2936",
      "2 62815  53.1587 242.4571 0001225 105.7728 293.7856 15.30154870    13"
    ]
  },
  "62816": {
    "noradId": "62816",
    "tle": [
      "1 62816C 25018L   25293.07895833  .00043000  00000+0  14496-2 0  2932",
      "2 62816  53.1583 242.7550 0001122  96.2076 125.6386 15.30140154    17"
    ]
  },
  "62817": {
    "noradId": "62817",
    "tle": [
      "1 62817C 25018M   25293.09006944  .00037757  00000+0  12722-2 0  2934",
      "2 62817  53.1584 242.4676 0001054 108.9841 290.4233 15.30162468    14"
    ]
  },
  "62818": {
    "noradId": "62818",
    "tle": [
      "1 62818C 25018N   25293.07965278  .00037153  00000+0  12522-2 0  2935",
      "2 62818  53.1590 242.4479 0000986  81.5341 295.3755 15.30155448    10"
    ]
  },
  "62819": {
    "noradId": "62819",
    "tle": [
      "1 62819C 25018P   25293.08451389  .00030310  00000+0  10215-2 0  2935",
      "2 62819  53.1577 242.6816 0001058  97.0939 178.6262 15.30164084    11"
    ]
  },
  "62820": {
    "noradId": "62820",
    "tle": [
      "1 62820C 25018Q   25293.09076389 -.00002000  00000+0 -67294-4 0  2939",
      "2 62820  53.1580 242.6832 0001160 133.6890 158.8661 15.30253937    11"
    ]
  },
  "62821": {
    "noradId": "62821",
    "tle": [
      "1 62821C 25018R   25293.08104167  .00040809  00000+0  13757-2 0  2935",
      "2 62821  53.1579 242.5802 0001077  99.1103 215.6531 15.30144277    10"
    ]
  },
  "62822": {
    "noradId": "62822",
    "tle": [
      "1 62822C 25018S   25293.08034722  .00034157  00000+0  11512-2 0  2931",
      "2 62822  53.1576 242.6655 0001078  91.3800 178.8285 15.30156762    12"
    ]
  },
  "62823": {
    "noradId": "62823",
    "tle": [
      "1 62823C 25018T   25293.09006944  .00027473  00000+0  92558-3 0  2931",
      "2 62823  53.1587 242.4332 0001269  95.3723 321.4862 15.30176372    11"
    ]
  },
  "62824": {
    "noradId": "62824",
    "tle": [
      "1 62824C 25018U   25293.08104167  .00011791  00000+0  39735-3 0  2931",
      "2 62824  53.1589 242.7995 0001277  78.2953 125.9433 15.30184605    15"
    ]
  },
  "62825": {
    "noradId": "62825",
    "tle": [
      "1 62825C 25018V   25293.07687500  .00041399  00000+0  13955-2 0  2930",
      "2 62825  53.1592 240.1392 0001260  68.6470  28.9400 15.30146001    16"
    ]
  },
  "62826": {
    "noradId": "62826",
    "tle": [
      "1 62826C 25018W   25293.08590278  .00049073  00000+0  16520-2 0  2935",
      "2 62826  53.1580 242.7051 0001270  84.6181 192.8042 15.30181281    14"
    ]
  },
  "62827": {
    "noradId": "62827",
    "tle": [
      "1 62827C 25018X   25293.08451389  .00077059  00000+0  25975-2 0  2934",
      "2 62827  53.1592 204.4086 0001008  72.0497 334.6451 15.30110428    16"
    ]
  },
  "62828": {
    "noradId": "62828",
    "tle": [
      "1 62828C 25018Y   25293.08520833  .00021107  00000+0  71129-3 0  2932",
      "2 62828  53.1590 239.8620 0001425  76.9356 188.7158 15.30174770    13"
    ]
  },
  "62829": {
    "noradId": "62829",
    "tle": [
      "1 62829C 25019A   25293.11229167  .00016110  00000+0  12517-3 0  2938",
      "2 62829  43.0003  73.0529 0001720 267.8309 133.2434 15.70814277    13"
    ]
  },
  "62830": {
    "noradId": "62830",
    "tle": [
      "1 62830C 25019B   25293.11368056 -.00037352  00000+0 -29013-3 0  2933",
      "2 62830  43.0005  73.3435 0002192 276.1493  12.5119 15.70872435    16"
    ]
  },
  "62831": {
    "noradId": "62831",
    "tle": [
      "1 62831C 25019C   25293.11020833 -.00027602  00000+0 -21436-3 0  2930",
      "2 62831  43.0003  73.8126 0001789 281.4129 167.2113 15.70868273    10"
    ]
  },
  "62832": {
    "noradId": "62832",
    "tle": [
      "1 62832C 25019D   25293.11437500 -.00039164  00000+0 -30421-3 0  2934",
      "2 62832  43.0005  73.5627 0001754 271.1066 291.2991 15.70874919    10"
    ]
  },
  "62833": {
    "noradId": "62833",
    "tle": [
      "1 62833C 25019E   25293.11506944 -.00022301  00000+0 -17320-3 0  2932",
      "2 62833  43.0003  73.6329 0001590 263.7023 272.5719 15.70861372    16"
    ]
  },
  "62834": {
    "noradId": "62834",
    "tle": [
      "1 62834C 25019F   25293.11159722 -.00028531  00000+0 -22159-3 0  2938",
      "2 62834  43.0003  73.1299 0002031 255.8732 111.1654 15.70866875    17"
    ]
  },
  "62835": {
    "noradId": "62835",
    "tle": [
      "1 62835C 25019G   25293.10881944 -.00028100  00000+0 -21823-3 0  2935",
      "2 62835  43.0003  73.8937 0001864 281.1669 129.5373 15.70867712    10"
    ]
  },
  "62836": {
    "noradId": "62836",
    "tle": [
      "1 62836C 25019H   25293.11020833 -.00027117  00000+0 -21057-3 0  2935",
      "2 62836  43.0005  73.4365 0001799 265.0508 333.8721 15.70869974    13"
    ]
  },
  "62837": {
    "noradId": "62837",
    "tle": [
      "1 62837C 25019J   25293.11020833 -.00029898  00000+0 -23218-3 0  2935",
      "2 62837  43.0003  73.2119 0001867 273.6949  55.4149 15.70870956    10"
    ]
  },
  "62838": {
    "noradId": "62838",
    "tle": [
      "1 62838C 25019K   25293.11090278 -.00033139  00000+0 -25734-3 0  2934",
      "2 62838  43.0003  73.1454 0001813 270.1061  87.8346 15.70875129    15"
    ]
  },
  "62839": {
    "noradId": "62839",
    "tle": [
      "1 62839C 25019L   25293.11368056 -.00034715  00000+0 -26968-3 0  2938",
      "2 62839  43.0003  73.7133 0001634 270.7235 227.6380 15.70868060    14"
    ]
  },
  "62840": {
    "noradId": "62840",
    "tle": [
      "1 62840C 25019M   25293.11298611 -.00026082  00000+0 -20260-3 0  2936",
      "2 62840  43.0003  73.2686 0001762 268.4352  46.3584 15.70861350    17"
    ]
  },
  "62841": {
    "noradId": "62841",
    "tle": [
      "1 62841C 25019N   25293.10951389 -.00044265  00000+0 -34386-3 0  2931",
      "2 62841  43.0005  73.5133 0001997 273.2315 291.7182 15.70877345    14"
    ]
  },
  "62842": {
    "noradId": "62842",
    "tle": [
      "1 62842C 25019P   25293.09076389  .00023131  00000+0  83835-3 0  2938",
      "2 62842  43.0008 155.9669 0001634 275.6975 298.0883 15.27534394    17"
    ]
  },
  "62843": {
    "noradId": "62843",
    "tle": [
      "1 62843C 25019Q   25293.07965278  .00027848  00000+0  10099-2 0  2931",
      "2 62843  42.9996 163.0017 0001512 285.7340 203.9176 15.27510868    12"
    ]
  },
  "62844": {
    "noradId": "62844",
    "tle": [
      "1 62844C 25019R   25293.09006944  .00037489  00000+0  13583-2 0  2933",
      "2 62844  43.0016 163.2831 0001578 255.5058 149.9559 15.27530293    15"
    ]
  },
  "62845": {
    "noradId": "62845",
    "tle": [
      "1 62845C 25019S   25293.07895833  .00041380  00000+0  14981-2 0  2933",
      "2 62845  43.0000 155.7737 0002014 252.4159   2.2763 15.27551440    19"
    ]
  },
  "62846": {
    "noradId": "62846",
    "tle": [
      "1 62846C 25019T   25293.08243056  .00025352  00000+0  91926-3 0  2935",
      "2 62846  42.9997 163.0904 0001567 276.9786 185.5233 15.27516294    15"
    ]
  },
  "62847": {
    "noradId": "62847",
    "tle": [
      "1 62847C 25019U   25293.08312500  .00032835  00000+0  11903-2 0  2937",
      "2 62847  43.0007 162.8791 0001477 269.6475 281.5135 15.27518398    10"
    ]
  },
  "62848": {
    "noradId": "62848",
    "tle": [
      "1 62848C 25019V   25293.08104167  .00034714  00000+0  12584-2 0  2930",
      "2 62848  42.9995 163.0810 0001631 257.3871 204.5092 15.27515417    12"
    ]
  }
}